NORAD_CAT_ID,OBJECT_NAME,OBJECT_TYPE,EPOCH,MEAN_MOTION,ECCENTRICITY,INCLINATION,RA_OF_ASC_NODE,ARG_OF_PERICENTER,MEAN_ANOMALY,BSTAR,MEAN_MOTION_DOT,MEAN_MOTION_DDOT,TLE_LINE0,TLE_LINE1,TLE_LINE2,SEMIMAJOR_AXIS,PERIOD,APOGEE,PERIGEE,DECAYED
53981.0,STARLINK-5149,PAYLOAD,2023-01-05 14:00:01,15.08875587,0.0001821999999999,53.2152,7.3257,38.9229,213.8762,-0.0045114,-0.00071446,0.0,0 STARLINK-5149,1 53981U 22125T   23005.58334491 -.00071446  00000-0 -45114-2 0  9996,2 53981  53.2152   7.3257 0001822  38.9229 213.8762 15.08875587 14688,6917.772,95.435,540.8969999999998,538.376,0.0
53981.0,STARLINK-5149,PAYLOAD,2023-01-05 20:00:01,15.08818936,0.0001684,53.2154,6.2021,42.49,129.0284,-0.00094111,-0.00015226,0.0,0 STARLINK-5149,1 53981U 22125T   23005.83334491 -.00015226  00000-0 -94111-3 0  9990,2 53981  53.2154   6.2021 0001684  42.4900 129.0284 15.08818936  1306,6917.945,95.439,540.975,538.645,0.0
53981.0,STARLINK-5149,PAYLOAD,2023-01-06 06:00:00,15.08818062,0.000192,53.2156,4.3328,43.6129,232.3709,0.00070317,0.00010914,0.0,0 STARLINK-5149,1 53981U 22125T   23006.25001157  .00010914  00000-0  70317-3 0  9996,2 53981  53.2156   4.3328 0001920  43.6129 232.3709 15.08818062 14782,6917.946999999999,95.439,541.141,538.484,0.0
53981.0,STARLINK-5149,PAYLOAD,2023-01-06 22:00:00,15.08843783,0.0001736,53.216,1.3382,47.3327,251.8187,0.00054205,8.35e-05,0.0,0 STARLINK-5149,1 53981U 22125T   23006.91667824  .00008350  00000-0  54205-3 0  9997,2 53981  53.2160   1.3382 0001736  47.3327 251.8187 15.08843783  1308,6917.8690000000015,95.437,540.935,538.533,0.0
53981.0,STARLINK-5149,PAYLOAD,2023-01-07 03:02:18,15.08853148,0.0001779,53.216,0.3968,45.8594,314.2544,2.4415e-05,1.01e-06,0.0,0 STARLINK-5149,1 53981U 22125T   23007.12660729  .00000101  00000-0  24415-4 0  9995,2 53981  53.2160   0.3968 0001779  45.8594 314.2544 15.08853148 14922,6917.84,95.437,540.936,538.475,0.0
53981.0,STARLINK-5149,PAYLOAD,2023-01-07 06:13:05,15.08851864,0.000194,53.216,359.8016,48.0582,312.0576,0.00013363,1.84e-05,0.0,0 STARLINK-5149,1 53981U 22125T   23007.25908902  .00001840  00000-0  13363-3 0  9997,2 53981  53.2160 359.8016 0001940  48.0582 312.0576 15.08851864 14878,6917.844,95.437,541.0509999999998,538.367,0.0
53981.0,STARLINK-5149,PAYLOAD,2023-01-07 09:23:51,15.08846923,0.0001864,53.2163,359.2073,45.8221,314.2925,0.00022597,3.311e-05,0.0,0 STARLINK-5149,1 53981U 22125T   23007.39157196  .00003311  00000-0  22597-3 0  9997,2 53981  53.2163 359.2073 0001864  45.8221 314.2925 15.08846923 14960,6917.859,95.437,541.014,538.435,0.0
53981.0,STARLINK-5149,PAYLOAD,2023-01-07 15:45:24,15.08839304,0.0001934,53.2162,358.0165,46.2598,313.8554,0.00011705,1.575e-05,0.0,0 STARLINK-5149,1 53981U 22125T   23007.65653510  .00001575  00000-0  11705-3 0  9996,2 53981  53.2162 358.0165 0001934  46.2598 313.8554 15.08839304 15002,6917.883000000002,95.438,541.085,538.41,0.0
53981.0,STARLINK-5149,PAYLOAD,2023-01-08 07:39:15,15.088544699999998,0.0001923,53.2162,355.0440000000001,45.7699,314.3451,0.00043807,6.693e-05,0.0,0 STARLINK-5149,1 53981U 22125T   23008.31892913  .00006693  00000-0  43807-3 0  9996,2 53981  53.2162 355.0440 0001923  45.7699 314.3451 15.08854470 15103,6917.835999999998,95.437,541.031,538.371,0.0
53981.0,STARLINK-5149,PAYLOAD,2023-01-08 21:57:44,15.08834619,0.0002568,53.2183,352.37,65.9544,294.1717,-3.2373e-05,-8.04e-06,0.0,0 STARLINK-5149,1 53981U 22125T   23008.91509911 -.00000804  00000-0 -32373-4 0  9992,2 53981  53.2183 352.3700 0002568  65.9544 294.1717 15.08834619 15129,6917.897,95.438,541.538,537.985,0.0
53981.0,STARLINK-5149,PAYLOAD,2023-01-09 02:43:54,15.08828498,0.0001925,53.2177,351.4765,72.3244,287.7958,-0.0001439,-2.577e-05,0.0,0 STARLINK-5149,1 53981U 22125T   23009.11382105 -.00002577  00000-0 -14390-3 0  9996,2 53981  53.2177 351.4765 0001925  72.3244 287.7958 15.08828498 15222,6917.916,95.438,541.112,538.4490000000002,0.0
53981.0,STARLINK-5149,PAYLOAD,2023-01-09 07:30:03,15.08830749,0.0001715,53.2172,350.5834,64.7756,295.3414,-2.6279e-05,-7.06e-06,0.0,0 STARLINK-5149,1 53981U 22125T   23009.31254227 -.00000706  00000-0 -26279-4 0  9993,2 53981  53.2172 350.5834 0001715  64.7756 295.3414 15.08830749 15183,6917.9090000000015,95.438,540.96,538.587,0.0
53981.0,STARLINK-5149,PAYLOAD,2023-01-09 15:26:59,15.08825857,0.0001605,53.2164,349.0969,59.7326,300.3825,-1.9794e-05,-6.03e-06,0.0,0 STARLINK-5149,1 53981U 22125T   23009.64374768 -.00000603  00000-0 -19794-4 0  9992,2 53981  53.2164 349.0969 0001605  59.7326 300.3825 15.08825857 15234,6917.924,95.438,540.899,538.678,0.0
53981.0,STARLINK-5149,PAYLOAD,2023-01-10 10:31:37,15.08844398,0.0001526,53.2159,345.5286,69.5131,290.6025,0.00099406,0.0001557,0.0,0 STARLINK-5149,1 53981U 22125T   23010.43863167  .00015570  00000-0  99406-3 0  9991,2 53981  53.2159 345.5286 0001526  69.5131 290.6025 15.08844398 15421,6917.866999999998,95.437,540.788,538.6759999999998,0.0
53981.0,STARLINK-5149,PAYLOAD,2023-01-11 02:25:28,15.088496,0.000168,53.2151,342.5481,133.3278,226.7854,0.00045297,6.929999999999999e-05,0.0,0 STARLINK-5149,1 53981U 22125T   23011.10102785  .00006930  00000-0  45297-3 0  9997,2 53981  53.2151 342.5481 0001680 133.3278 226.7854 15.08849600 15522,6917.851,95.437,540.878,538.554,0.0
53981.0,STARLINK-5149,PAYLOAD,2023-01-11 10:22:24,15.08853788,0.0001236,53.216,341.0654,117.6744,242.4374,0.0006732,0.00010446,0.0,0 STARLINK-5149,1 53981U 22125T   23011.43222823  .00010446  00000-0  67320-3 0  9997,2 53981  53.2160 341.0654 0001236 117.6744 242.4374 15.08853788 15500,6917.838000000002,95.437,540.558,538.8480000000002,0.0
53981.0,STARLINK-5149,PAYLOAD,2023-01-11 15:08:34,15.08814281,0.0001965,53.2164,340.1731,95.5737,264.5479,-0.00059909,-9.803e-05,0.0,0 STARLINK-5149,1 53981U 22125T   23011.63096047 -.00009803  00000-0 -59909-3 0  9997,2 53981  53.2164 340.1731 0001965  95.5737 264.5479 15.08814281 15602,6917.959,95.439,541.183,538.465,0.0
53981.0,STARLINK-5149,PAYLOAD,2023-01-11 21:30:07,15.08823494,0.0001423,53.2159,338.9866,88.029,272.0865,9.7109e-05,1.257e-05,0.0,0 STARLINK-5149,1 53981U 22125T   23011.89592147  .00001257  00000-0  97109-4 0  9995,2 53981  53.2159 338.9866 0001423  88.0290 272.0865 15.08823494 15575,6917.931,95.439,540.78,538.811,0.0
53981.0,STARLINK-5149,PAYLOAD,2023-01-12 03:51:40,15.08838938,0.0001433,53.2157,337.7973,92.3751,267.7405,0.0010937,0.00017161,0.0,0 STARLINK-5149,1 53981U 22125T   23012.16088335  .00017161  00000-0  10937-2 0  9998,2 53981  53.2157 337.7973 0001433  92.3751 267.7405 15.08838938 15682,6917.884,95.438,540.74,538.757,0.0
53981.0,STARLINK-5149,PAYLOAD,2023-01-12 14:59:22,15.08844789,0.0001478,53.2155,335.7158,93.1002,267.016,0.0013882,0.00021877,0.0,0 STARLINK-5149,1 53981U 22125T   23012.62456718  .00021877  00000-0  13882-2 0  9994,2 53981  53.2155 335.7158 0001478  93.1002 267.0160 15.08844789 15750,6917.866,95.437,540.753,538.7080000000002,0.0
53981.0,STARLINK-5149,PAYLOAD,2023-01-13 03:42:27,15.08872639,0.0001511,53.2155,333.3369,93.5237,266.5928,0.001648,0.00026061,0.0,0 STARLINK-5149,1 53981U 22125T   23013.15447994  .00026061  00000-0  16480-2 0  9996,2 53981  53.2155 333.3369 0001511  93.5237 266.5928 15.08872639 15762,6917.781,95.435,540.691,538.6,0.0
53981.0,STARLINK-5149,PAYLOAD,2023-01-14 03:33:13,15.08871703,0.0001561999999999,53.216,328.8769,75.119,284.9976,0.0018535,0.00029359,0.0,0 STARLINK-5149,1 53981U 22125T   23014.14807699  .00029359  00000-0  18535-2 0  9994,2 53981  53.2160 328.8769 0001562  75.1190 284.9976 15.08871703 15983,6917.783,95.436,540.729,538.568,0.0
53981.0,STARLINK-5149,PAYLOAD,2023-01-15 03:24:00,15.08863187,0.0001296999999999,53.217,324.4157,83.6363,276.4776,0.0018188,0.00028795,0.0,0 STARLINK-5149,1 53981U 22125T   23015.14167285  .00028795  00000-0  18188-2 0  9992,2 53981  53.2170 324.4157 0001297  83.6363 276.4776 15.08863187 16137,6917.81,95.436,540.572,538.7769999999999,0.0
53981.0,STARLINK-5149,PAYLOAD,2023-01-15 06:34:46,15.08869225,0.0001527,53.2165,323.8207,85.7092,274.4075,0.0017323,0.00027411,0.0,0 STARLINK-5149,1 53981U 22125T   23015.27415057  .00027411  00000-0  17323-2 0  9993,2 53981  53.2165 323.8207 0001527  85.7092 274.4075 15.08869225 16081,6917.791,95.436,540.712,538.6,0.0
53981.0,STARLINK-5149,PAYLOAD,2023-01-15 19:17:51,15.08847019,0.0001926,53.2169,321.4414,90.5114,269.6098,0.0017725,0.0002804,0.0,0 STARLINK-5149,1 53981U 22125T   23015.80406967  .00028040  00000-0  17725-2 0  9997,2 53981  53.2169 321.4414 0001926  90.5114 269.6098 15.08847019 16236,6917.859,95.437,541.056,538.3919999999999,0.0
53981.0,STARLINK-5149,PAYLOAD,2023-01-16 03:14:46,15.08886583,0.0001028,53.2163,319.955,77.6781,282.4327,0.0025828,0.0004111,0.0,0 STARLINK-5149,1 53981U 22125T   23016.13526297  .00041110  00000-0  25828-2 0  9999,2 53981  53.2163 319.9550 0001028  77.6781 282.4327 15.08886583 16284,6917.738,95.435,540.314,538.8919999999999,0.0
53981.0,STARLINK-5149,PAYLOAD,2023-01-16 12:47:05,15.08874092,6.8e-05,53.2165,318.1706,13.3768,346.7242,0.002042,0.0003239,0.0,0 STARLINK-5149,1 53981U 22125T   23016.53269810  .00032390  00000-0  20420-2 0  9991,2 53981  53.2165 318.1706 0000680  13.3768 346.7242 15.08874092 16276,6917.776,95.435,540.112,539.1709999999999,0.0
53981.0,STARLINK-5149,PAYLOAD,2023-01-17 03:05:35,15.08796014,0.0001369,53.2151,315.4962,66.7142,293.3994,0.0012305999999999,0.00019328,0.0,0 STARLINK-5149,1 53981U 22125T   23017.12888344  .00019328  00000-0  12306-2 0  9996,2 53981  53.2151 315.4962 0001369  66.7142 293.3994 15.08796014 16434,6918.015,95.44,540.827,538.933,0.0
53981.0,STARLINK-5149,PAYLOAD,2023-01-17 12:37:54,15.08830067,0.0001165999999999,53.215,313.7106,53.2595,306.8504,0.0023396999999999,0.00037135,0.0,0 STARLINK-5149,1 53981U 22125T   23017.52632932  .00037135  00000-0  23397-2 0  9998,2 53981  53.2150 313.7106 0001166  53.2595 306.8504 15.08830067 16425,6917.911,95.438,540.582,538.969,0.0
